[{"OBJECT_NAME":"STARLINK-4514","OBJECT_ID":"2022-101AA","EPOCH":"2025-12-06T14:43:53.024160","MEAN_MOTION":15.08835951,"ECCENTRICITY":0.00013896,"INCLINATION":53.2174,"RA_OF_ASC_NODE":121.9542,"ARG_OF_PERICENTER":92.3177,"MEAN_ANOMALY":267.7975,"EPHEMERIS_TYPE":0,"CLASSIFICATION_TYPE":"U","NORAD_CAT_ID":53551,"ELEMENT_SET_NO":999,"REV_AT_EPOCH":18291,"BSTAR":2.1256994e-5,"MEAN_MOTION_DOT":5.0e-7,"MEAN_MOTION_DDOT":0},{"OBJECT_NAME":"STARLINK-4495","OBJECT_ID":"2022-101AB","EPOCH":"2025-12-06T15:58:04.736640","MEAN_MOTION":15.08837123,"ECCENTRICITY":0.00012468,"INCLINATION":53.2177,"RA_OF_ASC_NODE":121.7217,"ARG_OF_PERICENTER":84.3365,"MEAN_ANOMALY":275.777,"EPHEMERIS_TYPE":0,"CLASSIFICATION_TYPE":"U","NORAD_CAT_ID":53552,"ELEMENT_SET_NO":999,"REV_AT_EPOCH":18291,"BSTAR":1.8016428e-5,"MEAN_MOTION_DOT":-1.0e-8,"MEAN_MOTION_DDOT":0},{"OBJECT_NAME":"STARLINK-4501","OBJECT_ID":"2022-101AC","EPOCH":"2025-12-06T15:47:27.112416","MEAN_MOTION":15.08839878,"ECCENTRICITY":0.00012346,"INCLINATION":53.2171,"RA_OF_ASC_NODE":121.6288,"ARG_OF_PERICENTER":81.3317,"MEAN_ANOMALY":278.7815,"EPHEMERIS_TYPE":0,"CLASSIFICATION_TYPE":"U","NORAD_CAT_ID":53553,"ELEMENT_SET_NO":999,"REV_AT_EPOCH":18292,"BSTAR":4.684307e-5,"MEAN_MOTION_DOT":4.58e-6,"MEAN_MOTION_DDOT":0},{"OBJECT_NAME":"STARLINK-4506","OBJECT_ID":"2022-101AD","EPOCH":"2025-12-06T15:48:51.311808","MEAN_MOTION":15.08838866,"ECCENTRICITY":0.00011951,"INCLINATION":53.2171,"RA_OF_ASC_NODE":121.7595,"ARG_OF_PERICENTER":88.325,"MEAN_ANOMALY":271.7879,"EPHEMERIS_TYPE":0,"CLASSIFICATION_TYPE":"U","NORAD_CAT_ID":53554,"ELEMENT_SET_NO":999,"REV_AT_EPOCH":18226,"BSTAR":4.229315e-5,"MEAN_MOTION_DOT":3.85e-6,"MEAN_MOTION_DDOT":0},{"OBJECT_NAME":"STARLINK-4504","OBJECT_ID":"2022-101AE","EPOCH":"2025-12-06T16:03:22.182336","MEAN_MOTION":15.0885501,"ECCENTRICITY":0.0001313,"INCLINATION":53.2186,"RA_OF_ASC_NODE":121.7027,"ARG_OF_PERICENTER":100.5055,"MEAN_ANOMALY":259.6085,"EPHEMERIS_TYPE":0,"CLASSIFICATION_TYPE":"U","NORAD_CAT_ID":53555,"ELEMENT_SET_NO":999,"REV_AT_EPOCH":18292,"BSTAR":-0.00034906864,"MEAN_MOTION_DOT":-5.841e-5,"MEAN_MOTION_DDOT":0},{"OBJECT_NAME":"STARLINK-4505","OBJECT_ID":"2022-101AF","EPOCH":"2025-12-06T15:36:53.702784","MEAN_MOTION":15.08822753,"ECCENTRICITY":0.00012042,"INCLINATION":53.216,"RA_OF_ASC_NODE":121.7909,"ARG_OF_PERICENTER":94.9232,"MEAN_ANOMALY":265.1897,"EPHEMERIS_TYPE":0,"CLASSIFICATION_TYPE":"U","NORAD_CAT_ID":53556,"ELEMENT_SET_NO":999,"REV_AT_EPOCH":18226,"BSTAR":8.7509589e-5,"MEAN_MOTION_DOT":1.105e-5,"MEAN_MOTION_DDOT":0},{"OBJECT_NAME":"STARLINK-4502","OBJECT_ID":"2022-101AG","EPOCH":"2025-12-06T15:52:46.472736","MEAN_MOTION":15.08838784,"ECCENTRICITY":0.00012336,"INCLINATION":53.2175,"RA_OF_ASC_NODE":121.7393,"ARG_OF_PERICENTER":82.8392,"MEAN_ANOMALY":277.2741,"EPHEMERIS_TYPE":0,"CLASSIFICATION_TYPE":"U","NORAD_CAT_ID":53557,"ELEMENT_SET_NO":999,"REV_AT_EPOCH":18291,"BSTAR":8.6089463e-5,"MEAN_MOTION_DOT":1.082e-5,"MEAN_MOTION_DDOT":0},{"OBJECT_NAME":"STARLINK-4494","OBJECT_ID":"2022-101AH","EPOCH":"2025-12-06T15:40:09.365088","MEAN_MOTION":15.0884819,"ECCENTRICITY":0.00014974,"INCLINATION":53.2164,"RA_OF_ASC_NODE":116.4989,"ARG_OF_PERICENTER":89.9399,"MEAN_ANOMALY":270.1764,"EPHEMERIS_TYPE":0,"CLASSIFICATION_TYPE":"U","NORAD_CAT_ID":53558,"ELEMENT_SET_NO":999,"REV_AT_EPOCH":18299,"BSTAR":0.00025484347,"MEAN_MOTION_DOT":3.771e-5,"MEAN_MOTION_DDOT":0},{"OBJECT_NAME":"STARLINK-4508","OBJECT_ID":"2022-101AJ","EPOCH":"2025-12-06T15:42:11.839680","MEAN_MOTION":15.08836103,"ECCENTRICITY":0.00018342,"INCLINATION":53.217,"RA_OF_ASC_NODE":121.7727,"ARG_OF_PERICENTER":45.8227,"MEAN_ANOMALY":314.2916,"EPHEMERIS_TYPE":0,"CLASSIFICATION_TYPE":"U","NORAD_CAT_ID":53559,"ELEMENT_SET_NO":999,"REV_AT_EPOCH":18226,"BSTAR":0.00016088329,"MEAN_MOTION_DOT":2.273e-5,"MEAN_MOTION_DDOT":0},{"OBJECT_NAME":"STARLINK-4564","OBJECT_ID":"2022-101AK","EPOCH":"2025-12-06T15:06:27.301824","MEAN_MOTION":15.08849654,"ECCENTRICITY":0.00013342,"INCLINATION":53.2171,"RA_OF_ASC_NODE":112.0669,"ARG_OF_PERICENTER":87.5507,"MEAN_ANOMALY":272.5638,"EPHEMERIS_TYPE":0,"CLASSIFICATION_TYPE":"U","NORAD_CAT_ID":53560,"ELEMENT_SET_NO":999,"REV_AT_EPOCH":18239,"BSTAR":0.0003709038,"MEAN_MOTION_DOT":5.621e-5,"MEAN_MOTION_DDOT":0},{"OBJECT_NAME":"STARLINK-4563","OBJECT_ID":"2022-101AL","EPOCH":"2025-12-06T15:31:35.186592","MEAN_MOTION":15.08834078,"ECCENTRICITY":0.00011358,"INCLINATION":53.2154,"RA_OF_ASC_NODE":121.8045,"ARG_OF_PERICENTER":77.348,"MEAN_ANOMALY":282.7639,"EPHEMERIS_TYPE":0,"CLASSIFICATION_TYPE":"U","NORAD_CAT_ID":53561,"ELEMENT_SET_NO":999,"REV_AT_EPOCH":18226,"BSTAR":2.601608e-5,"MEAN_MOTION_DOT":1.26e-6,"MEAN_MOTION_DDOT":0},{"OBJECT_NAME":"STARLINK-4565","OBJECT_ID":"2022-101AM","EPOCH":"2025-12-06T15:01:08.098752","MEAN_MOTION":15.08837074,"ECCENTRICITY":0.0001205,"INCLINATION":53.2168,"RA_OF_ASC_NODE":112.0457,"ARG_OF_PERICENTER":84.6067,"MEAN_ANOMALY":275.5062,"EPHEMERIS_TYPE":0,"CLASSIFICATION_TYPE":"U","NORAD_CAT_ID":53562,"ELEMENT_SET_NO":999,"REV_AT_EPOCH":18305,"BSTAR":0.0001052528,"MEAN_MOTION_DOT":1.388e-5,"MEAN_MOTION_DDOT":0},{"OBJECT_NAME":"STARLINK-4561","OBJECT_ID":"2022-101AN","EPOCH":"2025-12-06T15:11:45.684096","MEAN_MOTION":15.08835339,"ECCENTRICITY":0.00011876,"INCLINATION":53.2171,"RA_OF_ASC_NODE":112.09,"ARG_OF_PERICENTER":94.947,"MEAN_ANOMALY":265.1658,"EPHEMERIS_TYPE":0,"CLASSIFICATION_TYPE":"U","NORAD_CAT_ID":53563,"ELEMENT_SET_NO":999,"REV_AT_EPOCH":18239,"BSTAR":0.00022831005,"MEAN_MOTION_DOT":3.347e-5,"MEAN_MOTION_DDOT":0},{"OBJECT_NAME":"STARLINK-4577","OBJECT_ID":"2022-101AP","EPOCH":"2025-12-06T14:50:32.008128","MEAN_MOTION":15.0883829,"ECCENTRICITY":0.00010738,"INCLINATION":53.2154,"RA_OF_ASC_NODE":111.9997,"ARG_OF_PERICENTER":80.7426,"MEAN_ANOMALY":279.3688,"EPHEMERIS_TYPE":0,"CLASSIFICATION_TYPE":"U","NORAD_CAT_ID":53564,"ELEMENT_SET_NO":999,"REV_AT_EPOCH":18239,"BSTAR":4.9984557e-5,"MEAN_MOTION_DOT":5.08e-6,"MEAN_MOTION_DDOT":0},{"OBJECT_NAME":"STARLINK-4575","OBJECT_ID":"2022-101AQ","EPOCH":"2025-12-06T15:02:32.286912","MEAN_MOTION":15.08823254,"ECCENTRICITY":0.00015723,"INCLINATION":53.2187,"RA_OF_ASC_NODE":112.0496,"ARG_OF_PERICENTER":90.3719,"MEAN_ANOMALY":269.7453,"EPHEMERIS_TYPE":0,"CLASSIFICATION_TYPE":"U","NORAD_CAT_ID":53565,"ELEMENT_SET_NO":999,"REV_AT_EPOCH":18305,"BSTAR":-0.00011532804,"MEAN_MOTION_DOT":-2.122e-5,"MEAN_MOTION_DDOT":0},{"OBJECT_NAME":"STARLINK-4576","OBJECT_ID":"2022-101AR","EPOCH":"2025-12-06T14:39:54.867744","MEAN_MOTION":15.0883024,"ECCENTRICITY":0.00014593,"INCLINATION":53.2179,"RA_OF_ASC_NODE":111.9565,"ARG_OF_PERICENTER":96.6083,"MEAN_ANOMALY":263.5075,"EPHEMERIS_TYPE":0,"CLASSIFICATION_TYPE":"U","NORAD_CAT_ID":53566,"ELEMENT_SET_NO":999,"REV_AT_EPOCH":18308,"BSTAR":3.1668005e-5,"MEAN_MOTION_DOT":2.16e-6,"MEAN_MOTION_DDOT":0}]
