[{"norad_id":"53551","company":"STARLINK","tle_line2":"2 53551  53.2174 121.9542 0001389  92.3177 267.7975 15.08835951182916","launch_date":"2022-08-19","type":"LEO","tle_line1":"1 53551U 22101AA  25340.61380815  .00000050  00000+0  21257-4 0  9996","satellite_name":"STARLINK-4514"},{"norad_id":"53552","company":"STARLINK","tle_line2":"2 53552  53.2177 121.7217 0001246  84.3365 275.7770 15.08837123182914","launch_date":"2022-08-19","type":"LEO","tle_line1":"1 53552U 22101AB  25340.66533260 -.00000001  00000+0  18016-4 0  9992","satellite_name":"STARLINK-4495"},{"norad_id":"53553","company":"STARLINK","tle_line2":"2 53553  53.2171 121.6288 0001234  81.3317 278.7815 15.08839878182920","launch_date":"2022-08-19","type":"LEO","tle_line1":"1 53553U 22101AC  25340.65795269  .00000458  00000+0  46843-4 0  9995","satellite_name":"STARLINK-4501"},{"norad_id":"53554","company":"STARLINK","tle_line2":"2 53554  53.2171 121.7595 0001195  88.3250 271.7879 15.08838866182268","launch_date":"2022-08-19","type":"LEO","tle_line1":"1 53554U 22101AD  25340.65892722  .00000385  00000+0  42293-4 0  9992","satellite_name":"STARLINK-4506"},{"norad_id":"53555","company":"STARLINK","tle_line2":"2 53555  53.2186 121.7027 0001313 100.5055 259.6085 15.08855010182924","launch_date":"2022-08-19","type":"LEO","tle_line1":"1 53555U 22101AE  25340.66900674 -.00005841  00000+0 -34907-3 0  9996","satellite_name":"STARLINK-4504"},{"norad_id":"53556","company":"STARLINK","tle_line2":"2 53556  53.2160 121.7909 0001204  94.9232 265.1897 15.08822753182266","launch_date":"2022-08-19","type":"LEO","tle_line1":"1 53556U 22101AF  25340.65062156  .00001105  00000+0  87510-4 0  9996","satellite_name":"STARLINK-4505"},{"norad_id":"53557","company":"STARLINK","tle_line2":"2 53557  53.2175 121.7393 0001233  82.8392 277.2741 15.08838784182910","launch_date":"2022-08-19","type":"LEO","tle_line1":"1 53557U 22101AG  25340.66164899  .00001082  00000+0  86089-4 0  9999","satellite_name":"STARLINK-4502"},{"norad_id":"53558","company":"STARLINK","tle_line2":"2 53558  53.2164 116.4989 0001497  89.9399 270.1764 15.08848190182995","launch_date":"2022-08-19","type":"LEO","tle_line1":"1 53558U 22101AH  25340.65288617  .00003771  00000+0  25484-3 0  9992","satellite_name":"STARLINK-4494"},{"norad_id":"53559","company":"STARLINK","tle_line2":"2 53559  53.2170 121.7727 0001834  45.8227 314.2916 15.08836103182268","launch_date":"2022-08-19","type":"LEO","tle_line1":"1 53559U 22101AJ  25340.65430370  .00002273  00000+0  16088-3 0  9994","satellite_name":"STARLINK-4508"},{"norad_id":"53560","company":"STARLINK","tle_line2":"2 53560  53.2171 112.0669 0001334  87.5507 272.5638 15.08849654182394","launch_date":"2022-08-19","type":"LEO","tle_line1":"1 53560U 22101AK  25340.62948266  .00005621  00000+0  37090-3 0  9997","satellite_name":"STARLINK-4564"},{"norad_id":"53561","company":"STARLINK","tle_line2":"2 53561  53.2154 121.8045 0001135  77.3480 282.7639 15.08834078182262","launch_date":"2022-08-19","type":"LEO","tle_line1":"1 53561U 22101AL  25340.64693503  .00000126  00000+0  26016-4 0  9993","satellite_name":"STARLINK-4563"},{"norad_id":"53562","company":"STARLINK","tle_line2":"2 53562  53.2168 112.0457 0001205  84.6067 275.5062 15.08837074183054","launch_date":"2022-08-19","type":"LEO","tle_line1":"1 53562U 22101AM  25340.62578818  .00001388  00000+0  10525-3 0  9991","satellite_name":"STARLINK-4565"},{"norad_id":"53563","company":"STARLINK","tle_line2":"2 53563  53.2171 112.0900 0001187  94.9470 265.1658 15.08835339182397","launch_date":"2022-08-19","type":"LEO","tle_line1":"1 53563U 22101AN  25340.63316764  .00003347  00000+0  22831-3 0  9993","satellite_name":"STARLINK-4561"},{"norad_id":"53564","company":"STARLINK","tle_line2":"2 53564  53.2154 111.9997 0001073  80.7426 279.3688 15.08838290182390","launch_date":"2022-08-19","type":"LEO","tle_line1":"1 53564U 22101AP  25340.61842602  .00000508  00000+0  49985-4 0  9993","satellite_name":"STARLINK-4577"},{"norad_id":"53565","company":"STARLINK","tle_line2":"2 53565  53.2187 112.0496 0001572  90.3719 269.7453 15.08823254183050","launch_date":"2022-08-19","type":"LEO","tle_line1":"1 53565U 22101AQ  25340.62676258 -.00002122  00000+0 -11533-3 0  9990","satellite_name":"STARLINK-4575"},{"norad_id":"53566","company":"STARLINK","tle_line2":"2 53566  53.2179 111.9565 0001459  96.6083 263.5075 15.08830240183082","launch_date":"2022-08-19","type":"LEO","tle_line1":"1 53566U 22101AR  25340.61105171  .00000216  00000+0  31668-4 0  9993","satellite_name":"STARLINK-4576"}]